CCSDS_OMM_VERS = 2.0
CREATION_DATE  = 
ORIGINATOR     = 

OBJECT_NAME    = TIANQI-39
OBJECT_ID      = 2026-010C
CENTER_NAME    = EARTH
REF_FRAME      = TEME
TIME_SYSTEM    = UTC
MEAN_ELEMENT_THEORY = SGP/SGP4

EPOCH          = 2026-01-25T23:44:53.235456
MEAN_MOTION    = 14.14525315
ECCENTRICITY   = .00108816
INCLINATION    = 44.9845
RA_OF_ASC_NODE = 357.1944
ARG_OF_PERICENTER = 2.2084
MEAN_ANOMALY   = 357.8801

EPHEMERIS_TYPE = 0
CLASSIFICATION_TYPE = U
NORAD_CAT_ID   = 67478
ELEMENT_SET_NO = 999
REV_AT_EPOCH   = 144
BSTAR          = .21528436E-3
MEAN_MOTION_DOT = .282E-5
MEAN_MOTION_DDOT = 0

CCSDS_OMM_VERS = 2.0
CREATION_DATE  = 
ORIGINATOR     = 

OBJECT_NAME    = TIANQI-40
OBJECT_ID      = 2026-010D
CENTER_NAME    = EARTH
REF_FRAME      = TEME
TIME_SYSTEM    = UTC
MEAN_ELEMENT_THEORY = SGP/SGP4

EPOCH          = 2026-01-25T23:44:45.220992
MEAN_MOTION    = 14.14537680
ECCENTRICITY   = .00116352
INCLINATION    = 44.9851
RA_OF_ASC_NODE = 357.1942
ARG_OF_PERICENTER = 358.4330
MEAN_ANOMALY   = 1.6471

EPHEMERIS_TYPE = 0
CLASSIFICATION_TYPE = U
NORAD_CAT_ID   = 67479
ELEMENT_SET_NO = 999
REV_AT_EPOCH   = 144
BSTAR          = .21568769E-3
MEAN_MOTION_DOT = .283E-5
MEAN_MOTION_DDOT = 0

CCSDS_OMM_VERS = 2.0
CREATION_DATE  = 
ORIGINATOR     = 

OBJECT_NAME    = TRANSPORTER-15DT
OBJECT_ID      = 2025-276DT
CENTER_NAME    = EARTH
REF_FRAME      = TEME
TIME_SYSTEM    = UTC
MEAN_ELEMENT_THEORY = SGP/SGP4

EPOCH          = 2026-01-25T21:37:14.039616
MEAN_MOTION    = 14.97643116
ECCENTRICITY   = .00101612
INCLINATION    = 97.5430
RA_OF_ASC_NODE = 101.5003
ARG_OF_PERICENTER = 246.4048
MEAN_ANOMALY   = 113.6108

EPHEMERIS_TYPE = 0
CLASSIFICATION_TYPE = U
NORAD_CAT_ID   = 67483
ELEMENT_SET_NO = 999
REV_AT_EPOCH   = 131
BSTAR          = .20011972E-3
MEAN_MOTION_DOT = .2287E-4
MEAN_MOTION_DDOT = 0

CCSDS_OMM_VERS = 2.0
CREATION_DATE  = 
ORIGINATOR     = 

OBJECT_NAME    = STARLINK-36551
OBJECT_ID      = 2026-012A
CENTER_NAME    = EARTH
REF_FRAME      = TEME
TIME_SYSTEM    = UTC
MEAN_ELEMENT_THEORY = SGP/SGP4

EPOCH          = 2026-01-19T00:25:32.539872
MEAN_MOTION    = 16.05267929
ECCENTRICITY   = .00077
INCLINATION    = 43.0100
RA_OF_ASC_NODE = 248.3700
ARG_OF_PERICENTER = 319.9700
MEAN_ANOMALY   = 13.3500

EPHEMERIS_TYPE = 0
CLASSIFICATION_TYPE = U
NORAD_CAT_ID   = 67493
ELEMENT_SET_NO = 999
REV_AT_EPOCH   = 1
BSTAR          = 0
MEAN_MOTION_DOT = -.2725E-4
MEAN_MOTION_DDOT = .8614162E-5

CCSDS_OMM_VERS = 2.0
CREATION_DATE  = 
ORIGINATOR     = 

OBJECT_NAME    = STARLINK-36396
OBJECT_ID      = 2026-012B
CENTER_NAME    = EARTH
REF_FRAME      = TEME
TIME_SYSTEM    = UTC
MEAN_ELEMENT_THEORY = SGP/SGP4

EPOCH          = 2026-01-19T00:25:32.539872
MEAN_MOTION    = 16.05267929
ECCENTRICITY   = .00077
INCLINATION    = 43.0100
RA_OF_ASC_NODE = 248.3700
ARG_OF_PERICENTER = 319.9700
MEAN_ANOMALY   = 13.3500

EPHEMERIS_TYPE = 0
CLASSIFICATION_TYPE = U
NORAD_CAT_ID   = 67494
ELEMENT_SET_NO = 999
REV_AT_EPOCH   = 1
BSTAR          = 0
MEAN_MOTION_DOT = -.2725E-4
MEAN_MOTION_DDOT = .8614162E-5

CCSDS_OMM_VERS = 2.0
CREATION_DATE  = 
ORIGINATOR     = 

OBJECT_NAME    = STARLINK-36550
OBJECT_ID      = 2026-012C
CENTER_NAME    = EARTH
REF_FRAME      = TEME
TIME_SYSTEM    = UTC
MEAN_ELEMENT_THEORY = SGP/SGP4

EPOCH          = 2026-01-19T00:25:32.539872
MEAN_MOTION    = 16.05267929
ECCENTRICITY   = .00077
INCLINATION    = 43.0100
RA_OF_ASC_NODE = 248.3700
ARG_OF_PERICENTER = 319.9700
MEAN_ANOMALY   = 13.3500

EPHEMERIS_TYPE = 0
CLASSIFICATION_TYPE = U
NORAD_CAT_ID   = 67495
ELEMENT_SET_NO = 999
REV_AT_EPOCH   = 1
BSTAR          = 0
MEAN_MOTION_DOT = -.2725E-4
MEAN_MOTION_DDOT = .8614162E-5

CCSDS_OMM_VERS = 2.0
CREATION_DATE  = 
ORIGINATOR     = 

OBJECT_NAME    = STARLINK-36534
OBJECT_ID      = 2026-012D
CENTER_NAME    = EARTH
REF_FRAME      = TEME
TIME_SYSTEM    = UTC
MEAN_ELEMENT_THEORY = SGP/SGP4

EPOCH          = 2026-01-19T00:25:32.539872
MEAN_MOTION    = 16.05267929
ECCENTRICITY   = .00077
INCLINATION    = 43.0100
RA_OF_ASC_NODE = 248.3700
ARG_OF_PERICENTER = 319.9700
MEAN_ANOMALY   = 13.3500

EPHEMERIS_TYPE = 0
CLASSIFICATION_TYPE = U
NORAD_CAT_ID   = 67496
ELEMENT_SET_NO = 999
REV_AT_EPOCH   = 1
BSTAR          = 0
MEAN_MOTION_DOT = -.2725E-4
MEAN_MOTION_DDOT = .8614162E-5

CCSDS_OMM_VERS = 2.0
CREATION_DATE  = 
ORIGINATOR     = 

OBJECT_NAME    = STARLINK-36555
OBJECT_ID      = 2026-012E
CENTER_NAME    = EARTH
REF_FRAME      = TEME
TIME_SYSTEM    = UTC
MEAN_ELEMENT_THEORY = SGP/SGP4

EPOCH          = 2026-01-19T00:25:32.539872
MEAN_MOTION    = 16.05267929
ECCENTRICITY   = .00077
INCLINATION    = 43.0100
RA_OF_ASC_NODE = 248.3700
ARG_OF_PERICENTER = 319.9700
MEAN_ANOMALY   = 13.3500

EPHEMERIS_TYPE = 0
CLASSIFICATION_TYPE = U
NORAD_CAT_ID   = 67497
ELEMENT_SET_NO = 999
REV_AT_EPOCH   = 1
BSTAR          = 0
MEAN_MOTION_DOT = -.2725E-4
MEAN_MOTION_DDOT = .8614162E-5

CCSDS_OMM_VERS = 2.0
CREATION_DATE  = 
ORIGINATOR     = 

OBJECT_NAME    = STARLINK-36081
OBJECT_ID      = 2026-012F
CENTER_NAME    = EARTH
REF_FRAME      = TEME
TIME_SYSTEM    = UTC
MEAN_ELEMENT_THEORY = SGP/SGP4

EPOCH          = 2026-01-19T00:25:32.539872
MEAN_MOTION    = 16.05267929
ECCENTRICITY   = .00077
INCLINATION    = 43.0100
RA_OF_ASC_NODE = 248.3700
ARG_OF_PERICENTER = 319.9700
MEAN_ANOMALY   = 13.3500

EPHEMERIS_TYPE = 0
CLASSIFICATION_TYPE = U
NORAD_CAT_ID   = 67498
ELEMENT_SET_NO = 999
REV_AT_EPOCH   = 1
BSTAR          = 0
MEAN_MOTION_DOT = -.2725E-4
MEAN_MOTION_DDOT = .8614162E-5

CCSDS_OMM_VERS = 2.0
CREATION_DATE  = 
ORIGINATOR     = 

OBJECT_NAME    = STARLINK-36558
OBJECT_ID      = 2026-012G
CENTER_NAME    = EARTH
REF_FRAME      = TEME
TIME_SYSTEM    = UTC
MEAN_ELEMENT_THEORY = SGP/SGP4

EPOCH          = 2026-01-19T00:25:32.539872
MEAN_MOTION    = 16.05267929
ECCENTRICITY   = .00077
INCLINATION    = 43.0100
RA_OF_ASC_NODE = 248.3700
ARG_OF_PERICENTER = 319.9700
MEAN_ANOMALY   = 13.3500

EPHEMERIS_TYPE = 0
CLASSIFICATION_TYPE = U
NORAD_CAT_ID   = 67499
ELEMENT_SET_NO = 999
REV_AT_EPOCH   = 1
BSTAR          = 0
MEAN_MOTION_DOT = -.2725E-4
MEAN_MOTION_DDOT = .8614162E-5

CCSDS_OMM_VERS = 2.0
CREATION_DATE  = 
ORIGINATOR     = 

OBJECT_NAME    = STARLINK-36557
OBJECT_ID      = 2026-012H
CENTER_NAME    = EARTH
REF_FRAME      = TEME
TIME_SYSTEM    = UTC
MEAN_ELEMENT_THEORY = SGP/SGP4

EPOCH          = 2026-01-19T00:25:32.539872
MEAN_MOTION    = 16.05267929
ECCENTRICITY   = .00077
INCLINATION    = 43.0100
RA_OF_ASC_NODE = 248.3700
ARG_OF_PERICENTER = 319.9700
MEAN_ANOMALY   = 13.3500

EPHEMERIS_TYPE = 0
CLASSIFICATION_TYPE = U
NORAD_CAT_ID   = 67500
ELEMENT_SET_NO = 999
REV_AT_EPOCH   = 1
BSTAR          = 0
MEAN_MOTION_DOT = -.2725E-4
MEAN_MOTION_DDOT = .8614162E-5

CCSDS_OMM_VERS = 2.0
CREATION_DATE  = 
ORIGINATOR     = 

OBJECT_NAME    = STARLINK-36433
OBJECT_ID      = 2026-012J
CENTER_NAME    = EARTH
REF_FRAME      = TEME
TIME_SYSTEM    = UTC
MEAN_ELEMENT_THEORY = SGP/SGP4

EPOCH          = 2026-01-19T00:25:32.539872
MEAN_MOTION    = 16.05267929
ECCENTRICITY   = .00077
INCLINATION    = 43.0100
RA_OF_ASC_NODE = 248.3700
ARG_OF_PERICENTER = 319.9700
MEAN_ANOMALY   = 13.3500

EPHEMERIS_TYPE = 0
CLASSIFICATION_TYPE = U
NORAD_CAT_ID   = 67501
ELEMENT_SET_NO = 999
REV_AT_EPOCH   = 1
BSTAR          = 0
MEAN_MOTION_DOT = -.2725E-4
MEAN_MOTION_DDOT = .8614162E-5

